{
  "type": "FeatureCollection",
  "features": [
    {
      "type": "Feature",
      "properties": {
        "norad_id": 34079,
        "name": "IRIDIUM 33 DEB",
        "group": "iridium-33-debris",
        "lat": -24.496366135890305,
        "lon": 2.8582985627775175,
        "alt_km": 620.0271146602245,
        "timestamp": "2025-12-21T20:41:08.341079+00:00",
        "meta_object_name": "IRIDIUM 33 DEB",
        "meta_object_id": "1997-051CN",
        "meta_epoch": "2025-12-21T13:15:26.350848",
        "meta_mean_motion": 14.83733705,
        "meta_eccentricity": 0.00045701,
        "meta_inclination": 86.3769,
        "meta_ra_of_asc_node": 4.6535,
        "meta_arg_of_pericenter": 336.3629,
        "meta_mean_anomaly": 147.0439,
        "meta_ephemeris_type": 0,
        "meta_classification_type": "U",
        "meta_norad_cat_id": 34079,
        "meta_element_set_no": 999,
        "meta_rev_at_epoch": 89108,
        "meta_bstar": 0.0012935449,
        "meta_mean_motion_dot": 0.00010729,
        "meta_mean_motion_ddot": 0,
        "tle_line1": "1 34079U 97051CN  25355.55238832  .00010729  00000+0  12935-2 0  9991",
        "tle_line2": "2 34079  86.3769   4.6535 0004570 336.3629 147.0439 14.83733705891080"
      },
      "geometry": {
        "type": "Point",
        "coordinates": [
          2.8582985627775175,
          -24.496366135890305
        ]
      }
    },
    {
      "type": "Feature",
      "properties": {
        "norad_id": 34088,
        "name": "IRIDIUM 33 DEB",
        "group": "iridium-33-debris",
        "lat": -32.61057426723994,
        "lon": 24.212262433015123,
        "alt_km": 603.3816162517733,
        "timestamp": "2025-12-21T20:41:08.341088+00:00",
        "meta_object_name": "IRIDIUM 33 DEB",
        "meta_object_id": "1997-051CX",
        "meta_epoch": "2025-12-21T13:18:54.465984",
        "meta_mean_motion": 14.91742218,
        "meta_eccentricity": 0.0006689,
        "meta_inclination": 86.3837,
        "meta_ra_of_asc_node": 26.6724,
        "meta_arg_of_pericenter": 148.9219,
        "meta_mean_anomaly": 330.3576,
        "meta_ephemeris_type": 0,
        "meta_classification_type": "U",
        "meta_norad_cat_id": 34088,
        "meta_element_set_no": 999,
        "meta_rev_at_epoch": 88873,
        "meta_bstar": 0.001771542,
        "meta_mean_motion_dot": 0.00017894,
        "meta_mean_motion_ddot": 0,
        "tle_line1": "1 34088U 97051CX  25355.55479706  .00017894  00000+0  17715-2 0  9999",
        "tle_line2": "2 34088  86.3837  26.6724 0006689 148.9219 330.3576 14.91742218888730"
      },
      "geometry": {
        "type": "Point",
        "coordinates": [
          24.212262433015123,
          -32.61057426723994
        ]
      }
    },
    {
      "type": "Feature",
      "properties": {
        "norad_id": 34091,
        "name": "IRIDIUM 33 DEB",
        "group": "iridium-33-debris",
        "lat": -23.351522218895816,
        "lon": -115.76222729708391,
        "alt_km": 614.2690865593277,
        "timestamp": "2025-12-21T20:41:08.341098+00:00",
        "meta_object_name": "IRIDIUM 33 DEB",
        "meta_object_id": "1997-051DA",
        "meta_epoch": "2025-12-21T05:11:15.309888",
        "meta_mean_motion": 14.82383169,
        "meta_eccentricity": 0.0034138,
        "meta_inclination": 86.3414,
        "meta_ra_of_asc_node": 62.9508,
        "meta_arg_of_pericenter": 262.7173,
        "meta_mean_anomaly": 97.0169,
        "meta_ephemeris_type": 0,
        "meta_classification_type": "U",
        "meta_norad_cat_id": 34091,
        "meta_element_set_no": 999,
        "meta_rev_at_epoch": 87992,
        "meta_bstar": 0.0035697,
        "meta_mean_motion_dot": 0.00028976,
        "meta_mean_motion_ddot": 0,
        "tle_line1": "1 34091U 97051DA  25355.21614942  .00028976  00000+0  35697-2 0  9991",
        "tle_line2": "2 34091  86.3414  62.9508 0034138 262.7173  97.0169 14.82383169879924"
      },
      "geometry": {
        "type": "Point",
        "coordinates": [
          -115.76222729708391,
          -23.351522218895816
        ]
      }
    },
    {
      "type": "Feature",
      "properties": {
        "norad_id": 34097,
        "name": "IRIDIUM 33 DEB",
        "group": "iridium-33-debris",
        "lat": -20.399518949711624,
        "lon": -4.035627252169771,
        "alt_km": 722.8729974567541,
        "timestamp": "2025-12-21T20:41:08.341107+00:00",
        "meta_object_name": "IRIDIUM 33 DEB",
        "meta_object_id": "1997-051DG",
        "meta_epoch": "2025-12-21T12:24:38.765376",
        "meta_mean_motion": 14.3484137,
        "meta_eccentricity": 0.00817144,
        "meta_inclination": 86.1998,
        "meta_ra_of_asc_node": 357.5329,
        "meta_arg_of_pericenter": 333.4635,
        "meta_mean_anomaly": 26.2387,
        "meta_ephemeris_type": 0,
        "meta_classification_type": "U",
        "meta_norad_cat_id": 34097,
        "meta_element_set_no": 999,
        "meta_rev_at_epoch": 87245,
        "meta_bstar": 0.0011354179,
        "meta_mean_motion_dot": 3.364e-05,
        "meta_mean_motion_ddot": 0,
        "tle_line1": "1 34097U 97051DG  25355.51711534  .00003364  00000+0  11354-2 0  9993",
        "tle_line2": "2 34097  86.1998 357.5329 0081714 333.4635  26.2387 14.34841370872457"
      },
      "geometry": {
        "type": "Point",
        "coordinates": [
          -4.035627252169771,
          -20.399518949711624
        ]
      }
    },
    {
      "type": "Feature",
      "properties": {
        "norad_id": 34145,
        "name": "IRIDIUM 33 DEB",
        "group": "iridium-33-debris",
        "lat": 44.19366126489564,
        "lon": 144.76997964938394,
        "alt_km": 733.853624650591,
        "timestamp": "2025-12-21T20:41:08.341116+00:00",
        "meta_object_name": "IRIDIUM 33 DEB",
        "meta_object_id": "1997-051DY",
        "meta_epoch": "2025-12-21T08:24:33.903360",
        "meta_mean_motion": 14.42344558,
        "meta_eccentricity": 0.00556988,
        "meta_inclination": 86.2119,
        "meta_ra_of_asc_node": 328.691,
        "meta_arg_of_pericenter": 66.4729,
        "meta_mean_anomaly": 294.2309,
        "meta_ephemeris_type": 0,
        "meta_classification_type": "U",
        "meta_norad_cat_id": 34145,
        "meta_element_set_no": 999,
        "meta_rev_at_epoch": 87762,
        "meta_bstar": 0.00088327299,
        "meta_mean_motion_dot": 2.992e-05,
        "meta_mean_motion_ddot": 0,
        "tle_line1": "1 34145U 97051DY  25355.35039240  .00002992  00000+0  88327-3 0  9997",
        "tle_line2": "2 34145  86.2119 328.6910 0055698  66.4729 294.2309 14.42344558877621"
      },
      "geometry": {
        "type": "Point",
        "coordinates": [
          144.76997964938394,
          44.19366126489564
        ]
      }
    },
    {
      "type": "Feature",
      "properties": {
        "norad_id": 34146,
        "name": "IRIDIUM 33 DEB",
        "group": "iridium-33-debris",
        "lat": -5.777027462841536,
        "lon": -14.606631765395013,
        "alt_km": 750.4201415748612,
        "timestamp": "2025-12-21T20:41:08.341125+00:00",
        "meta_object_name": "IRIDIUM 33 DEB",
        "meta_object_id": "1997-051DZ",
        "meta_epoch": "2025-12-21T11:20:47.029056",
        "meta_mean_motion": 14.49100968,
        "meta_eccentricity": 0.00263815,
        "meta_inclination": 86.2834,
        "meta_ra_of_asc_node": 345.942,
        "meta_arg_of_pericenter": 191.3369,
        "meta_mean_anomaly": 294.1823,
        "meta_ephemeris_type": 0,
        "meta_classification_type": "U",
        "meta_norad_cat_id": 34146,
        "meta_element_set_no": 999,
        "meta_rev_at_epoch": 88233,
        "meta_bstar": 0.00067306657,
        "meta_mean_motion_dot": 2.588e-05,
        "meta_mean_motion_ddot": 0,
        "tle_line1": "1 34146U 97051DZ  25355.47276654  .00002588  00000+0  67307-3 0  9999",
        "tle_line2": "2 34146  86.2834 345.9420 0026381 191.3369 294.1823 14.49100968882335"
      },
      "geometry": {
        "type": "Point",
        "coordinates": [
          -14.606631765395013,
          -5.777027462841536
        ]
      }
    },
    {
      "type": "Feature",
      "properties": {
        "norad_id": 34159,
        "name": "IRIDIUM 33 DEB",
        "group": "iridium-33-debris",
        "lat": 81.4758032141553,
        "lon": 69.55882157021668,
        "alt_km": 774.5628156303419,
        "timestamp": "2025-12-21T20:41:08.341134+00:00",
        "meta_object_name": "IRIDIUM 33 DEB",
        "meta_object_id": "1997-051EN",
        "meta_epoch": "2025-12-21T10:17:10.762656",
        "meta_mean_motion": 14.3851321,
        "meta_eccentricity": 0.00260789,
        "meta_inclination": 86.3499,
        "meta_ra_of_asc_node": 44.5364,
        "meta_arg_of_pericenter": 257.1437,
        "meta_mean_anomaly": 102.6848,
        "meta_ephemeris_type": 0,
        "meta_classification_type": "U",
        "meta_norad_cat_id": 34159,
        "meta_element_set_no": 999,
        "meta_rev_at_epoch": 88084,
        "meta_bstar": 0.00030289356,
        "meta_mean_motion_dot": 9.48e-06,
        "meta_mean_motion_ddot": 0,
        "tle_line1": "1 34159U 97051EN  25355.42859679  .00000948  00000+0  30289-3 0  9999",
        "tle_line2": "2 34159  86.3499  44.5364 0026078 257.1437 102.6848 14.38513210880846"
      },
      "geometry": {
        "type": "Point",
        "coordinates": [
          69.55882157021668,
          81.4758032141553
        ]
      }
    }
  ]
}